{
  "type": "FeatureCollection",
  "features": [
    {
      "type": "Feature",
      "properties": {
        "norad_id": 40938,
        "name": "BEIDOU-3S IGSO-2S (C56)",
        "group": "gnss",
        "lat": -38.476595310602725,
        "lon": 123.58677742941957,
        "alt_km": 35614.1098832605,
        "timestamp": "2025-12-19T20:43:00.328247+00:00",
        "meta_object_name": "BEIDOU-3S IGSO-2S (C56)",
        "meta_object_id": "2015-053A",
        "meta_epoch": "2025-12-18T17:10:26.885280",
        "meta_mean_motion": 1.00268888,
        "meta_eccentricity": 0.00604928,
        "meta_inclination": 49.5013,
        "meta_ra_of_asc_node": 260.935,
        "meta_arg_of_pericenter": 188.6507,
        "meta_mean_anomaly": 351.508,
        "meta_ephemeris_type": 0,
        "meta_classification_type": "U",
        "meta_norad_cat_id": 40938,
        "meta_element_set_no": 999,
        "meta_rev_at_epoch": 3754,
        "meta_bstar": 0,
        "meta_mean_motion_dot": -1.17e-06,
        "meta_mean_motion_ddot": 0,
        "tle_line1": "1 40938U 15053A   25352.71558895 -.00000117  00000+0  00000+0 0  9991",
        "tle_line2": "2 40938  49.5013 260.9350 0060492 188.6507 351.5080  1.00268888 37541"
      },
      "geometry": {
        "type": "Point",
        "coordinates": [
          123.58677742941957,
          -38.476595310602725
        ]
      }
    },
    {
      "type": "Feature",
      "properties": {
        "norad_id": 41019,
        "name": "GPS BIIF-11 (PRN 10)",
        "group": "gnss",
        "lat": 41.172331393918,
        "lon": 72.60038170597522,
        "alt_km": 20472.229955819268,
        "timestamp": "2025-12-19T20:43:00.328259+00:00",
        "meta_object_name": "GPS BIIF-11 (PRN 10)",
        "meta_object_id": "2015-062A",
        "meta_epoch": "2025-12-18T07:03:43.989696",
        "meta_mean_motion": 2.00567221,
        "meta_eccentricity": 0.0110964,
        "meta_inclination": 56.8362,
        "meta_ra_of_asc_node": 37.7874,
        "meta_arg_of_pericenter": 230.0867,
        "meta_mean_anomaly": 128.9943,
        "meta_ephemeris_type": 0,
        "meta_classification_type": "U",
        "meta_norad_cat_id": 41019,
        "meta_element_set_no": 999,
        "meta_rev_at_epoch": 7420,
        "meta_bstar": 0,
        "meta_mean_motion_dot": -6.9e-07,
        "meta_mean_motion_ddot": 0,
        "tle_line1": "1 41019U 15062A   25352.29425914 -.00000069  00000+0  00000+0 0  9996",
        "tle_line2": "2 41019  56.8362  37.7874 0110964 230.0867 128.9943  2.00567221 74204"
      },
      "geometry": {
        "type": "Point",
        "coordinates": [
          72.60038170597522,
          41.172331393918
        ]
      }
    },
    {
      "type": "Feature",
      "properties": {
        "norad_id": 41028,
        "name": "GSAT-15 (GAGAN/PRN 139)",
        "group": "gnss",
        "lat": -0.003711224142311131,
        "lon": 132.9112908250907,
        "alt_km": 35788.17359588705,
        "timestamp": "2025-12-19T20:43:00.328271+00:00",
        "meta_object_name": "GSAT-15 (GAGAN/PRN 139)",
        "meta_object_id": "2015-065A",
        "meta_epoch": "2025-12-18T19:05:45.371328",
        "meta_mean_motion": 1.00271726,
        "meta_eccentricity": 0.00025136,
        "meta_inclination": 0.0329,
        "meta_ra_of_asc_node": 270.5773,
        "meta_arg_of_pericenter": 322.7332,
        "meta_mean_anomaly": 234.2757,
        "meta_ephemeris_type": 0,
        "meta_classification_type": "U",
        "meta_norad_cat_id": 41028,
        "meta_element_set_no": 999,
        "meta_rev_at_epoch": 3699,
        "meta_bstar": 0,
        "meta_mean_motion_dot": -2.33e-06,
        "meta_mean_motion_ddot": 0,
        "tle_line1": "1 41028U 15065A   25352.79566402 -.00000233  00000+0  00000+0 0  9995",
        "tle_line2": "2 41028   0.0329 270.5773 0002513 322.7332 234.2757  1.00271726 36998"
      },
      "geometry": {
        "type": "Point",
        "coordinates": [
          132.9112908250907,
          -0.003711224142311131
        ]
      }
    },
    {
      "type": "Feature",
      "properties": {
        "norad_id": 41174,
        "name": "GSAT0209 (GALILEO 12)",
        "group": "gnss",
        "lat": -13.042280952874814,
        "lon": -64.74221921990325,
        "alt_km": 23230.464043260283,
        "timestamp": "2025-12-19T20:43:00.328296+00:00",
        "meta_object_name": "GSAT0209 (GALILEO 12)",
        "meta_object_id": "2015-079A",
        "meta_epoch": "2025-12-17T18:49:30.009504",
        "meta_mean_motion": 1.70474581,
        "meta_eccentricity": 0.00024688,
        "meta_inclination": 55.7156,
        "meta_ra_of_asc_node": 106.2426,
        "meta_arg_of_pericenter": 347.1145,
        "meta_mean_anomaly": 12.8381,
        "meta_ephemeris_type": 0,
        "meta_classification_type": "U",
        "meta_norad_cat_id": 41174,
        "meta_element_set_no": 999,
        "meta_rev_at_epoch": 6168,
        "meta_bstar": 0,
        "meta_mean_motion_dot": -9e-08,
        "meta_mean_motion_ddot": 0,
        "tle_line1": "1 41174U 15079A   25351.78437511 -.00000009  00000+0  00000+0 0  9999",
        "tle_line2": "2 41174  55.7156 106.2426 0002468 347.1145  12.8381  1.70474581 61685"
      },
      "geometry": {
        "type": "Point",
        "coordinates": [
          -64.74221921990325,
          -13.042280952874814
        ]
      }
    },
    {
      "type": "Feature",
      "properties": {
        "norad_id": 41175,
        "name": "GSAT0208 (GALILEO 11)",
        "group": "gnss",
        "lat": 46.12925004264517,
        "lon": 151.30358660199124,
        "alt_km": 23214.183141761125,
        "timestamp": "2025-12-19T20:43:00.328308+00:00",
        "meta_object_name": "GSAT0208 (GALILEO 11)",
        "meta_object_id": "2015-079B",
        "meta_epoch": "2025-12-18T00:06:32.261184",
        "meta_mean_motion": 1.70474394,
        "meta_eccentricity": 0.00019057,
        "meta_inclination": 55.7144,
        "meta_ra_of_asc_node": 106.2337,
        "meta_arg_of_pericenter": 356.5595,
        "meta_mean_anomaly": 3.3982,
        "meta_ephemeris_type": 0,
        "meta_classification_type": "U",
        "meta_norad_cat_id": 41175,
        "meta_element_set_no": 999,
        "meta_rev_at_epoch": 6210,
        "meta_bstar": 0,
        "meta_mean_motion_dot": -8e-08,
        "meta_mean_motion_ddot": 0,
        "tle_line1": "1 41175U 15079B   25352.00454006 -.00000008  00000+0  00000+0 0  9993",
        "tle_line2": "2 41175  55.7144 106.2337 0001905 356.5595   3.3982  1.70474394 62104"
      },
      "geometry": {
        "type": "Point",
        "coordinates": [
          151.30358660199124,
          46.12925004264517
        ]
      }
    },
    {
      "type": "Feature",
      "properties": {
        "norad_id": 41241,
        "name": "IRNSS-1E",
        "group": "gnss",
        "lat": 32.86078896330088,
        "lon": 150.71182994814882,
        "alt_km": 35798.215627372934,
        "timestamp": "2025-12-19T20:43:00.328322+00:00",
        "meta_object_name": "IRNSS-1E",
        "meta_object_id": "2016-003A",
        "meta_epoch": "2025-12-18T14:48:50.843232",
        "meta_mean_motion": 1.00271358,
        "meta_eccentricity": 0.00216611,
        "meta_inclination": 32.8383,
        "meta_ra_of_asc_node": 62.3675,
        "meta_arg_of_pericenter": 188.4275,
        "meta_mean_anomaly": 170.6574,
        "meta_ephemeris_type": 0,
        "meta_classification_type": "U",
        "meta_norad_cat_id": 41241,
        "meta_element_set_no": 999,
        "meta_rev_at_epoch": 3626,
        "meta_bstar": 0,
        "meta_mean_motion_dot": -3.05e-06,
        "meta_mean_motion_ddot": 0,
        "tle_line1": "1 41241U 16003A   25352.61725513 -.00000305  00000+0  00000+0 0  9996",
        "tle_line2": "2 41241  32.8383  62.3675 0021661 188.4275 170.6574  1.00271358 36265"
      },
      "geometry": {
        "type": "Point",
        "coordinates": [
          150.71182994814882,
          32.86078896330088
        ]
      }
    },
    {
      "type": "Feature",
      "properties": {
        "norad_id": 41328,
        "name": "GPS BIIF-12 (PRN 32)",
        "group": "gnss",
        "lat": -5.579953436195849,
        "lon": 92.71296375975632,
        "alt_km": 20263.794077018698,
        "timestamp": "2025-12-19T20:43:00.328334+00:00",
        "meta_object_name": "GPS BIIF-12 (PRN 32)",
        "meta_object_id": "2016-007A",
        "meta_epoch": "2025-12-18T09:02:43.184544",
        "meta_mean_motion": 2.00560483,
        "meta_eccentricity": 0.00924431,
        "meta_inclination": 55.4093,
        "meta_ra_of_asc_node": 96.6333,
        "meta_arg_of_pericenter": 243.7073,
        "meta_mean_anomaly": 115.3258,
        "meta_ephemeris_type": 0,
        "meta_classification_type": "U",
        "meta_norad_cat_id": 41328,
        "meta_element_set_no": 999,
        "meta_rev_at_epoch": 7221,
        "meta_bstar": 0,
        "meta_mean_motion_dot": -3.5e-07,
        "meta_mean_motion_ddot": 0,
        "tle_line1": "1 41328U 16007A   25352.37688871 -.00000035  00000+0  00000+0 0  9994",
        "tle_line2": "2 41328  55.4093  96.6333 0092443 243.7073 115.3258  2.00560483 72219"
      },
      "geometry": {
        "type": "Point",
        "coordinates": [
          92.71296375975632,
          -5.579953436195849
        ]
      }
    }
  ]
}